IRIDIUM 116             
1 43072U 17083C   24258.87952350  .00000480  00000+0  16445-3 0  9999
2 43072  86.3962 229.5573 0002281  90.0284 270.1173 14.34219707352392
IRIDIUM 130             
1 43073U 17083D   24258.91757516  .00001112  00000+0  38996-3 0  9990
2 43073  86.3971 229.7543 0002239  90.7742 269.3711 14.34217117352347
IRIDIUM 134             
1 43075U 17083F   24258.65118104  .00001350  00000+0  47474-3 0  9992
2 43075  86.3961 229.6955 0002201  91.8720 268.2728 14.34227336352295
IRIDIUM 137             
1 43076U 17083G   24258.45456024  .00001180  00000+0  41406-3 0  9997
2 43076  86.3964 229.8573 0002751  91.1469 269.0042 14.34228137352333
IRIDIUM 141             
1 43077U 17083H   24258.86682613  .00000114  00000+0  33483-4 0  9991
2 43077  86.3958 229.5520 0002165  84.9767 275.1676 14.34219006352398
IRIDIUM 153             
1 43078U 17083J   24258.74924106  .00001509  00000+0  53160-3 0  9997
2 43078  86.4028 198.1090 0002301  66.3788 293.7650 14.34217570353483
